country_id,google_id,english_name,spanish_name,id,isoNum,ISO2,ISO3,travelInsurance,nombre,name,photos
1,ChIJi7xhMnjjQgwR7KNoB5Qs7KY,Spain,España,73.0,724.0,ES,ESP,False,Spain,Spain,"{'header': [{'caption': 'Spain', 'paths': {'original': 'https://cdn2.civitatis.com/spain/spain-o.jpg', 'thumbnail': 'https://cdn2.civitatis.com/spain/spain-t.jpg'}}]}"
2,ChIJ_UuggpyUkkYRwyW0T7qf6kA,Estonia,Estonia,76.0,233.0,EE,EST,False,Estonia,Estonia,"{'header': [{'caption': 'Estonia', 'paths': {'original': 'https://cdn2.civitatis.com/estonia/estonia-o.jpg', 'thumbnail': 'https://cdn2.civitatis.com/estonia/estonia-t.jpg'}}]}"
3,ChIJ_ZqKe2cw6UYREPzyaM3PAAA,Latvia,Letonia,123.0,428.0,LV,LVA,False,Latvia,Latvia,"{'header': [{'caption': 'Latvia', 'paths': {'original': 'https://cdn2.civitatis.com/latvia/latvia-o.jpg', 'thumbnail': 'https://cdn2.civitatis.com/latvia/latvia-t.jpg'}}]}"
4,ChIJE74zDxSU3UYRubpdpdNUCvM,Lithuania,Lituania,128.0,440.0,LT,LTU,False,Lithuania,Lithuania,"{'header': [{'caption': 'Lithuania', 'paths': {'original': 'https://cdn2.civitatis.com/lithuania/lithuania-o.jpg', 'thumbnail': 'https://cdn2.civitatis.com/lithuania/lithuania-t.jpg'}}]}"
5,ChIJ3fYyS9_KgUYREKh1PNZGAQA,Finland,Finlandia,80.0,246.0,FI,FIN,True,Finland,Finland,"{'header': [{'caption': 'Finland', 'paths': {'original': 'https://cdn2.civitatis.com/finland/finland-o.jpg', 'thumbnail': 'https://cdn2.civitatis.com/finland/finland-t.jpg'}}]}"
6,ChIJuwtkpGSZAEcR6lXMScpzdQk,Poland,Polonia,176.0,616.0,PL,POL,True,Poland,Poland,"{'header': [{'caption': 'Poland', 'paths': {'original': 'https://cdn2.civitatis.com/poland/poland-o.jpg', 'thumbnail': 'https://cdn2.civitatis.com/poland/poland-t.jpg'}}]}"
7,ChIJ-1-U7rYnS0YRzZLgw9BDh1I,Denmark,Dinamarca,63.0,208.0,DK,DNK,False,Denmark,Denmark,"{'header': [{'caption': 'Denmark', 'paths': {'original': 'https://cdn2.civitatis.com/denmark/denmark-o.jpg', 'thumbnail': 'https://cdn2.civitatis.com/denmark/denmark-t.jpg'}}]}"
8,ChIJv-VNj0VoEkYRK9BkuJ07sKE,Norway,Noruega,162.0,578.0,NO,NOR,False,Norway,Norway,"{'header': [{'caption': 'Norway', 'paths': {'original': 'https://cdn2.civitatis.com/norway/norway-o.jpg', 'thumbnail': 'https://cdn2.civitatis.com/norway/norway-t.jpg'}}]}"
9,ChIJ8fA1bTmyXEYRYm-tjaLruCI,Sweden,Suecia,207.0,752.0,SE,SWE,False,Sweden,Sweden,"{'header': [{'caption': 'Sweden', 'paths': {'original': 'https://cdn2.civitatis.com/sweden/sweden-o.jpg', 'thumbnail': 'https://cdn2.civitatis.com/sweden/sweden-t.jpg'}}]}"
10,ChIJQ2Dro1Ir0kgRmkXB5TQEim8,Iceland,Islandia,110.0,352.0,IS,ISL,True,Iceland,Iceland,"{'header': [{'caption': 'Iceland', 'paths': {'original': 'https://cdn2.civitatis.com/iceland/iceland-o.jpg', 'thumbnail': 'https://cdn2.civitatis.com/iceland/iceland-t.jpg'}}]}"
11,ChIJjw5wVMHZ0UAREED2iIQGAQA,Ukraine,Ucrania,227.0,804.0,UA,UKR,False,Ukraine,Ukraine,"{'header': [{'caption': 'Ukraine', 'paths': {'original': 'https://cdn2.civitatis.com/ukraine/ukraine-o.jpg', 'thumbnail': 'https://cdn2.civitatis.com/ukraine/ukraine-t.jpg'}}]}"
12,ChIJ97NxcaPC6kAR67r_KuAJbyo,Crimea,Crimea,,,,,,,,
13,ChIJQ4Ld14-UC0cRb1jb03UcZvg,Czech Republic,República Checa,45.0,203.0,CZ,CZE,True,Czech Republic,Czech Republic,"{'header': [{'caption': 'Czech Republic', 'paths': {'original': 'https://cdn2.civitatis.com/czech-republic/czech-republic-o.jpg', 'thumbnail': 'https://cdn2.civitatis.com/czech-republic/czech-republic-t.jpg'}}]}"
14,ChIJ1SZCvy0kMgsRQfBOHAlLuCo,Portugal,Portugal,177.0,620.0,PT,PRT,True,Portugal,Portugal,"{'header': [{'caption': 'Portugal', 'paths': {'original': 'https://cdn2.civitatis.com/portugal/portugal-o.jpg', 'thumbnail': 'https://cdn2.civitatis.com/portugal/portugal-t.jpg'}}]}"
15,ChIJxUeGHShFDhMROUK-NmHYgvU,Malta,Malta,137.0,470.0,MT,MLT,True,Malta,Malta,"{'header': [{'caption': 'Malta', 'paths': {'original': 'https://cdn2.civitatis.com/malta-country/malta-country-o.jpg', 'thumbnail': 'https://cdn2.civitatis.com/malta-country/malta-country-t.jpg'}}]}"
16,ChIJifBbyMH-qEAREEy_aRKgAAA,Bulgaria,Bulgaria,35.0,100.0,BG,BGR,False,Bulgaria,Bulgaria,"{'header': [{'caption': 'Bulgaria', 'paths': {'original': 'https://cdn2.civitatis.com/bulgaria/bulgaria-o.jpg', 'thumbnail': 'https://cdn2.civitatis.com/bulgaria/bulgaria-t.jpg'}}]}"
17,ChIJw3aJlSb_sUARlLEEqJJP74Q,Romania,Rumanía,183.0,642.0,RO,ROU,False,Romania,Romania,"{'header': [{'caption': 'Romania', 'paths': {'original': 'https://cdn2.civitatis.com/romania/romania-o.jpg', 'thumbnail': 'https://cdn2.civitatis.com/romania/romania-t.jpg'}}]}"
18,ChIJoWm3KDZ8yUARy6xT36wZgSU,Moldova,Moldavia,148.0,498.0,MD,MDA,False,Moldavia,Moldavia,"{'header': [{'caption': 'Moldavia', 'paths': {'original': 'https://cdn2.civitatis.com/moldavia/moldavia-o.jpg', 'thumbnail': 'https://cdn2.civitatis.com/moldavia/moldavia-t.jpg'}}]}"
19,ChIJVU1JymcX3hQRbhTEf4A8TDI,Cyprus,Chipre,48.0,196.0,CY,CYP,False,Cyprus,Cyprus,"{'header': [{'caption': 'Cyprus', 'paths': {'original': 'https://cdn2.civitatis.com/cyprus/cyprus-o.jpg', 'thumbnail': 'https://cdn2.civitatis.com/cyprus/cyprus-t.jpg'}}]}"
20,ChIJ39UebIqp0EcRqI4tMyWV4fQ,England,Inglaterra,180.0,826.0,GB,GBR,True,United Kingdom ,United Kingdom ,"{'header': [{'caption': 'United Kingdom ', 'paths': {'original': 'https://cdn2.civitatis.com/united-kingdom/united-kingdom-o.jpg', 'thumbnail': 'https://cdn2.civitatis.com/united-kingdom/united-kingdom-t.jpg'}}]}"
21,ChIJNb4UJ3a_DA0RD4cANiYlTjg,Gibraltar,Gibraltar,,,,,,,,
22,ChIJw-Q333uDQUcREBAeDCnEAAA,Hungary,Hungria,104.0,348.0,HU,HUN,False,Hungary,Hungary,"{'header': [{'caption': 'Hungary', 'paths': {'original': 'https://cdn2.civitatis.com/hungary/hungary-o.jpg', 'thumbnail': 'https://cdn2.civitatis.com/hungary/hungary-t.jpg'}}]}"
23,ChIJ6_ktdpMVvEgRJBv3ZEgxsD8,Faroe Islands,Islas Feroe,78.0,234.0,FO,FRO,False,Faroe Islands,Faroe Islands,"{'header': [{'caption': 'Faroe Islands', 'paths': {'original': 'https://cdn2.civitatis.com/faroe-islands/faroe-islands-o.jpg', 'thumbnail': 'https://cdn2.civitatis.com/faroe-islands/faroe-islands-t.jpg'}}]}"
25,ChIJA9KNRIL-1BIRb15jJFz1LOI,Italy,Italia,112.0,380.0,IT,ITA,True,Italy,Italy,"{'header': [{'caption': 'Italy', 'paths': {'original': 'https://cdn2.civitatis.com/italy/italy-o.jpg', 'thumbnail': 'https://cdn2.civitatis.com/italy/italy-t.jpg'}}]}"
26,ChIJMVd4MymgVA0R99lHx5Y__Ws,France,Francia,82.0,250.0,FR,FRA,True,France,France,"{'header': [{'caption': 'France', 'paths': {'original': 'https://cdn2.civitatis.com/france/france-o.jpg', 'thumbnail': 'https://cdn2.civitatis.com/france/france-t.jpg'}}]}"
27,ChIJa76xwh5ymkcRW-WRjmtd6HU,Germany,Alemania,4.0,276.0,DE,DEU,True,Germany,Germany,"{'header': [{'caption': 'Germany', 'paths': {'original': 'https://cdn2.civitatis.com/germany/germany-o.jpg', 'thumbnail': 'https://cdn2.civitatis.com/germany/germany-t.jpg'}}]}"
28,ChIJgUit4oQl2kYREIzsgdGhAAA,Belarus,Bielorrusia,23.0,112.0,BY,BLR,True,Belarus,Belarus,"{'header': [{'caption': 'Belarus', 'paths': {'original': 'https://cdn2.civitatis.com/belarus/belarus-o.jpg', 'thumbnail': 'https://cdn2.civitatis.com/belarus/belarus-t.jpg'}}]}"
29,ChIJ7ZXdCghBNBMRfxtm4STA86A,Croatia,Croacia,61.0,191.0,HR,HRV,True,Croatia,Croatia,"{'header': [{'caption': 'Croatia', 'paths': {'original': 'https://cdn2.civitatis.com/croatia/croatia-o.jpg', 'thumbnail': 'https://cdn2.civitatis.com/croatia/croatia-t.jpg'}}]}"
30,ChIJYYOWXuckZUcRZdTiJR5FQOc,Slovenia,Eslovenia,72.0,705.0,SI,SVN,False,Slovenia,Slovenia,"{'header': [{'caption': 'Slovenia', 'paths': {'original': 'https://cdn2.civitatis.com/slovenia/slovenia-o.jpg', 'thumbnail': 'https://cdn2.civitatis.com/slovenia/slovenia-t.jpg'}}]}"
31,ChIJf8Z8rrlgFEcRfTpysWdha80,Slovakia,Eslovaquia,71.0,703.0,SK,SVK,False,Slovakia,Slovakia,"{'header': [{'caption': 'Slovakia', 'paths': {'original': 'https://cdn2.civitatis.com/slovakia/slovakia-o.jpg', 'thumbnail': 'https://cdn2.civitatis.com/slovakia/slovakia-t.jpg'}}]}"
32,ChIJfyqdJZsHbUcRr8Hk3XvUEhA,Austria,Austria,17.0,40.0,AT,AUT,True,Austria,Austria,"{'header': [{'caption': 'Austria', 'paths': {'original': 'https://cdn2.civitatis.com/austria/austria-o.jpg', 'thumbnail': 'https://cdn2.civitatis.com/austria/austria-t.jpg'}}]}"
33,ChIJ16k3xxWiSxMRDOm3QwPi920,Bosnia and Herzegovina,Bosnia y Herzegovina,30.0,70.0,BA,BIH,False,Bosnia and Herzegovina,Bosnia and Herzegovina,"{'header': [{'caption': 'Bosnia and Herzegovina', 'paths': {'original': 'https://cdn2.civitatis.com/bosnia-and-herzegovina/bosnia-and-herzegovina-o.jpg', 'thumbnail': 'https://cdn2.civitatis.com/bosnia-and-herzegovina/bosnia-and-herzegovina-t.jpg'}}]}"
34,ChIJyx8sJBcyTBMRRtP_boadTDg,Montenegro,Montenegro,241.0,499.0,ME,MNE,False,Montenegro,Montenegro,"{'header': [{'caption': 'Montenegro', 'paths': {'original': 'https://cdn2.civitatis.com/montenegro-country/montenegro-country-o.jpg', 'thumbnail': 'https://cdn2.civitatis.com/montenegro-country/montenegro-country-t.jpg'}}]}"
35,ChIJLUwnvfM7RRMR7juY1onlfAc,Albania,Albania,3.0,8.0,AL,ALB,False,Albania,Albania,"{'header': [{'caption': 'Albania', 'paths': {'original': 'https://cdn2.civitatis.com/albania/albania-o.jpg', 'thumbnail': 'https://cdn2.civitatis.com/albania/albania-t.jpg'}}]}"
36,ChIJY2xxEcdKWxMRHS2a3HUXOjY,Greece,Grecia,90.0,300.0,GR,GRC,True,Greece,Greece,"{'header': [{'caption': 'Greece', 'paths': {'original': 'https://cdn2.civitatis.com/greece/greece-o.jpg', 'thumbnail': 'https://cdn2.civitatis.com/greece/greece-t.jpg'}}]}"
37,ChIJ-ydAXOS6WUgRCPTbzjQSfM8,Ireland,Irlanda,109.0,372.0,IE,IRL,True,Ireland,Ireland,"{'header': [{'caption': 'Ireland', 'paths': {'original': 'https://cdn2.civitatis.com/ireland/ireland-o.jpg', 'thumbnail': 'https://cdn2.civitatis.com/ireland/ireland-t.jpg'}}]}"
38,ChIJCUi8cJ8VVBMRscUfyNZa8uA,North Macedonia,Macedonia del norte,131.0,807.0,MK,MKD,False,North Macedonia,North Macedonia,"{'header': [{'caption': 'North Macedonia', 'paths': {'original': 'https://cdn2.civitatis.com/macedonia/macedonia-o.jpg', 'thumbnail': 'https://cdn2.civitatis.com/macedonia/macedonia-t.jpg'}}]}"
39,ChIJlfCemC71pRIRkn_qeNc-yQc,Andorra,Andorra,5.0,20.0,AD,AND,False,Andorra,Andorra,"{'header': [{'caption': 'Andorra', 'paths': {'original': 'https://cdn2.civitatis.com/andorra/andorra-o.jpg', 'thumbnail': 'https://cdn2.civitatis.com/andorra/andorra-t.jpg'}}]}"
40,ChIJ_S9HHUQxm0cRibFa3Ta16mA,Liechtenstein,Liechtenstein,127.0,438.0,LI,LIE,False,Liechtenstein,Liechtenstein,"{'header': [{'caption': 'Liechtenstein', 'paths': {'original': 'https://cdn2.civitatis.com/liechtenstein/liechtenstein-o.jpg', 'thumbnail': 'https://cdn2.civitatis.com/liechtenstein/liechtenstein-t.jpg'}}]}"
41,ChIJeT_m9V_rLBMRECA0gpnzAAA,San Marino,San Marino,190.0,674.0,SM,SMR,False,San Marino,San Marino,"{'header': [{'caption': 'San Marino', 'paths': {'original': 'https://cdn2.civitatis.com/san-marino/san-marino-o.jpg', 'thumbnail': 'https://cdn2.civitatis.com/san-marino/san-marino-t.jpg'}}]}"
42,ChIJlYCJ8t8dV0cRXYYjN-pQXgU,Serbia,Serbia,197.0,688.0,RS,SRB,False,Serbia,Serbia,"{'header': [{'caption': 'Serbia', 'paths': {'original': 'https://cdn2.civitatis.com/serbia/serbia-o.jpg', 'thumbnail': 'https://cdn2.civitatis.com/serbia/serbia-t.jpg'}}]}"
43,ChIJ-yRniZpWPEURE_YRZvj9CRQ,Russia,Rusia,184.0,643.0,RU,RUS,True,Russia,Russia,"{'header': [{'caption': 'Russia', 'paths': {'original': 'https://cdn2.civitatis.com/russia/russia-o.jpg', 'thumbnail': 'https://cdn2.civitatis.com/russia/russia-t.jpg'}}]}"
44,ChIJu-SH28MJxkcRnwq9_851obM,Netherlands,Países Bajos,166.0,528.0,NL,NLD,True,Netherlands,Netherlands,"{'header': [{'caption': 'Netherlands', 'paths': {'original': 'https://cdn2.civitatis.com/netherlands/netherlands-o.jpg', 'thumbnail': 'https://cdn2.civitatis.com/netherlands/netherlands-t.jpg'}}]}"
45,ChIJl5fz7WR9wUcR8g_mObTy60c,Belgium,Bélgica,24.0,56.0,BE,BEL,False,Belgium ,Belgium ,"{'header': [{'caption': 'Belgium ', 'paths': {'original': 'https://cdn2.civitatis.com/belgium/belgium-o.jpg', 'thumbnail': 'https://cdn2.civitatis.com/belgium/belgium-t.jpg'}}]}"
46,ChIJRyEhyrlFlUcR75LTAvZg22Q,Luxembourg,Luxemburgo,129.0,442.0,LU,LUX,False,Luxembourg,Luxembourg,"{'header': [{'caption': 'Luxembourg', 'paths': {'original': 'https://cdn2.civitatis.com/luxembourg-country/luxembourg-country-o.jpg', 'thumbnail': 'https://cdn2.civitatis.com/luxembourg-country/luxembourg-country-t.jpg'}}]}"
47,ChIJYW1Zb-9kjEcRFXvLDxG1Vlw,Switzerland,Suiza,208.0,756.0,CH,CHE,True,Switzerland,Switzerland,"{'header': [{'caption': 'Switzerland', 'paths': {'original': 'https://cdn2.civitatis.com/switzerland/switzerland-o.jpg', 'thumbnail': 'https://cdn2.civitatis.com/switzerland/switzerland-t.jpg'}}]}"
48,ChIJMYU_e2_CzRIR_JzEOkx493Q,Monaco,Mónaco,149.0,492.0,MC,MCO,False,Monaco,Monaco,"{'header': [{'caption': 'Monaco', 'paths': {'original': 'https://cdn2.civitatis.com/monaco-country/monaco-country-o.jpg', 'thumbnail': 'https://cdn2.civitatis.com/monaco-country/monaco-country-t.jpg'}}]}"
49,ChIJa2JP5tcMREARwkotEmR5kE8,Georgia,Georgia,85.0,268.0,GE,GEO,False,Georgia,Georgia,"{'header': [{'caption': 'Georgia', 'paths': {'original': 'https://cdn2.civitatis.com/georgia/georgia-o.jpg', 'thumbnail': 'https://cdn2.civitatis.com/georgia/georgia-t.jpg'}}]}"
51,ChIJ7Q8cbLY0ZEgRouilirxxux4,Wales,Gales,180.0,826.0,GB,GBR,True,United Kingdom ,United Kingdom ,"{'header': [{'caption': 'United Kingdom ', 'paths': {'original': 'https://cdn2.civitatis.com/united-kingdom/united-kingdom-o.jpg', 'thumbnail': 'https://cdn2.civitatis.com/united-kingdom/united-kingdom-t.jpg'}}]}"
52,ChIJn6HyA8TiYUgRFAfDCdj6wec,Scotland,Escocia,180.0,826.0,GB,GBR,True,United Kingdom ,United Kingdom ,"{'header': [{'caption': 'United Kingdom ', 'paths': {'original': 'https://cdn2.civitatis.com/united-kingdom/united-kingdom-o.jpg', 'thumbnail': 'https://cdn2.civitatis.com/united-kingdom/united-kingdom-t.jpg'}}]}"
53,ChIJdZmmmcoQXkgR2OO3bu8o5fc,Northern Ireland,Irlanda del Norte,180.0,826.0,GB,GBR,True,United Kingdom ,United Kingdom ,"{'header': [{'caption': 'United Kingdom ', 'paths': {'original': 'https://cdn2.civitatis.com/united-kingdom/united-kingdom-o.jpg', 'thumbnail': 'https://cdn2.civitatis.com/united-kingdom/united-kingdom-t.jpg'}}]}"
54,ChIJCzYy5IS16lQRQrfeQ5K5Oxw,United States,Estados Unidos,75.0,840.0,US,USA,True,The United States,United States,"{'header': [{'caption': 'The United States', 'paths': {'original': 'https://cdn2.civitatis.com/united-states/united-states-o.jpg', 'thumbnail': 'https://cdn2.civitatis.com/united-states/united-states-t.jpg'}}]}"
55,ChIJ2WrMN9MDDUsRpY9Doiq3aJk,Canada,Canadá,42.0,124.0,CA,CAN,False,Canada,Canada,"{'header': [{'caption': 'Canada', 'paths': {'original': 'https://cdn2.civitatis.com/canada/canada-o.jpg', 'thumbnail': 'https://cdn2.civitatis.com/canada/canada-t.jpg'}}]}"
56,ChIJU1NoiDs6BIQREZgJa760ZO0,Mexico,México,146.0,484.0,MX,MEX,True,Mexico,Mexico,"{'header': [{'caption': 'Mexico', 'paths': {'original': 'https://cdn2.civitatis.com/mexico/mexico-o.jpg', 'thumbnail': 'https://cdn2.civitatis.com/mexico/mexico-t.jpg'}}]}"
57,ChIJzyjM68dZnAARYz4p8gYVWik,Brazil,Brasil,33.0,76.0,BR,BRA,False,Brazil,Brazil,"{'header': [{'caption': 'Brazil', 'paths': {'original': 'https://cdn2.civitatis.com/brazil/brazil-o.jpg', 'thumbnail': 'https://cdn2.civitatis.com/brazil/brazil-t.jpg'}}]}"
58,ChIJZ8b99fXKvJURqA_wKpl3Lz0,Argentina,Argentina,13.0,32.0,AR,ARG,False,Argentina,Argentina,"{'header': [{'caption': 'Argentina', 'paths': {'original': 'https://cdn2.civitatis.com/argentina/argentina-o.jpg', 'thumbnail': 'https://cdn2.civitatis.com/argentina/argentina-t.jpg'}}]}"
59,ChIJo5QVrjqkFY4RQKPy7wSaDZo,Colombia,Colombia,52.0,170.0,CO,COL,False,Colombia,Colombia,"{'header': [{'caption': 'Colombia', 'paths': {'original': 'https://cdn2.civitatis.com/colombia/colombia-o.jpg', 'thumbnail': 'https://cdn2.civitatis.com/colombia/colombia-t.jpg'}}]}"
60,ChIJ9RRZwFDIBZERSAYheRIBnvI,Peru,Perú,173.0,604.0,PE,PER,False,Peru,Peru,"{'header': [{'caption': 'Peru', 'paths': {'original': 'https://cdn2.civitatis.com/peru/peru-o.jpg', 'thumbnail': 'https://cdn2.civitatis.com/peru/peru-t.jpg'}}]}"
61,ChIJEbvLf_PGto4R0_ZUTLI4FLU,Haiti,Haití,100.0,332.0,HT,HTI,False,Haiti,Haiti,"{'header': [{'caption': 'Haiti', 'paths': {'original': 'https://cdn2.civitatis.com/haiti/haiti-o.jpg', 'thumbnail': 'https://cdn2.civitatis.com/haiti/haiti-t.jpg'}}]}"
62,ChIJL68lBEHFYpYRHbkCERPhBQU,Chile,Chile,46.0,152.0,CL,CHL,False,Chile,Chile,"{'header': [{'caption': 'Chile', 'paths': {'original': 'https://cdn2.civitatis.com/chile/chile-o.jpg', 'thumbnail': 'https://cdn2.civitatis.com/chile/chile-t.jpg'}}]}"
63,ChIJJcmsIWLlko8RK5qBNSX3VGI,Costa Rica,Costa Rica,60.0,188.0,CR,CRI,False,Costa Rica,Costa Rica,"{'header': [{'caption': 'Costa Rica', 'paths': {'original': 'https://cdn2.civitatis.com/costa-rica/costa-rica-o.jpg', 'thumbnail': 'https://cdn2.civitatis.com/costa-rica/costa-rica-t.jpg'}}]}"
64,ChIJtUx6DwdJzYgRGqQQkVL3jHk,Cuba,Cuba,62.0,192.0,CU,CUB,False,Cuba,Cuba,"{'header': [{'caption': 'Cuba', 'paths': {'original': 'https://cdn2.civitatis.com/cuba/cuba-o.jpg', 'thumbnail': 'https://cdn2.civitatis.com/cuba/cuba-t.jpg'}}]}"
65,ChIJAdjLNstTKIwR003VfFjyoNw,Venezuela,Venezuela,232.0,862.0,VE,VEN,False,Venezuela,Venezuela,"{'header': [{'caption': 'Venezuela', 'paths': {'original': 'https://cdn2.civitatis.com/venezuela/venezuela-o.jpg', 'thumbnail': 'https://cdn2.civitatis.com/venezuela/venezuela-t.jpg'}}]}"
66,ChIJ1UuaqN2HI5ARAjecEQSvdp0,Ecuador,Ecuador,66.0,218.0,EC,ECU,False,Ecuador,Ecuador,"{'header': [{'caption': 'Ecuador', 'paths': {'original': 'https://cdn2.civitatis.com/ecuador/ecuador-o.jpg', 'thumbnail': 'https://cdn2.civitatis.com/ecuador/ecuador-t.jpg'}}]}"
67,ChIJzzG3cxp1ao8RZIL7toLe0X4,Honduras,Honduras,102.0,340.0,HN,HND,False,Honduras,Honduras,"{'header': [{'caption': 'Honduras', 'paths': {'original': 'https://cdn2.civitatis.com/honduras/honduras-o.jpg', 'thumbnail': 'https://cdn2.civitatis.com/honduras/honduras-t.jpg'}}]}"
68,ChIJ9bbx3jiIr44R4PcNBiQPAqY,Dominican Republic,República Dominicana,65.0,214.0,DO,DOM,False,The Dominican Republic,Dominican Republic,"{'header': [{'caption': 'The Dominican Republic', 'paths': {'original': 'https://cdn2.civitatis.com/dominican-republic/dominican-republic-o.jpg', 'thumbnail': 'https://cdn2.civitatis.com/dominican-republic/dominican-republic-t.jpg'}}]}"
69,ChIJ4yu-yIMVpo8Rz5ulH03g7nk,Panama,Panamá,170.0,591.0,PA,PAN,False,Panama,Panama,"{'header': [{'caption': 'Panama', 'paths': {'original': 'https://cdn2.civitatis.com/panama/panama-o.jpg', 'thumbnail': 'https://cdn2.civitatis.com/panama/panama-t.jpg'}}]}"
70,ChIJVwZkWaYnY48RMkiFmOsWmm8,El Salvador,El Salvador,68.0,222.0,SV,SLV,False,El Salvador,El Salvador,"{'header': [{'caption': 'El Salvador', 'paths': {'original': 'https://cdn2.civitatis.com/el-salvador/el-salvador-o.jpg', 'thumbnail': 'https://cdn2.civitatis.com/el-salvador/el-salvador-t.jpg'}}]}"
71,ChIJ-aeSGyaWAowRGpsEGCjsNvM,Puerto Rico,Puerto Rico,178.0,630.0,PR,PRI,False,Puerto Rico,Puerto Rico,"{'header': [{'caption': 'Puerto Rico', 'paths': {'original': 'https://cdn2.civitatis.com/puerto-rico/puerto-rico-o.jpg', 'thumbnail': 'https://cdn2.civitatis.com/puerto-rico/puerto-rico-t.jpg'}}]}"
72,ChIJlaK7d4nfXpERv-0VAbvCnhw,Bolivia,Bolivia,29.0,68.0,BO,BOL,False,Bolivia,Bolivia,"{'header': [{'caption': 'Bolivia', 'paths': {'original': 'https://cdn2.civitatis.com/bolivia/bolivia-o.jpg', 'thumbnail': 'https://cdn2.civitatis.com/bolivia/bolivia-t.jpg'}}]}"
73,ChIJa1DnNlATiIURu9WEWzcrmDU,Guatemala,Guatemala,94.0,320.0,GT,GTM,False,Guatemala,Guatemala,"{'header': [{'caption': 'Guatemala', 'paths': {'original': 'https://cdn2.civitatis.com/guatemala/guatemala-o.jpg', 'thumbnail': 'https://cdn2.civitatis.com/guatemala/guatemala-t.jpg'}}]}"
74,ChIJYz3xkDQIXJQR8y5YHWH_-rM,Paraguay,Paraguay,172.0,600.0,PY,PRY,False,Paraguay,Paraguay,"{'header': [{'caption': 'Paraguay', 'paths': {'original': 'https://cdn2.civitatis.com/paraguay/paraguay-o.jpg', 'thumbnail': 'https://cdn2.civitatis.com/paraguay/paraguay-t.jpg'}}]}"
75,ChIJCd5f-zoHdZURSlIWYGGWVUo,Uruguay,Uruguay,229.0,858.0,UY,URY,False,Uruguay,Uruguay,"{'header': [{'caption': 'Uruguay', 'paths': {'original': 'https://cdn2.civitatis.com/uruguay/uruguay-o.jpg', 'thumbnail': 'https://cdn2.civitatis.com/uruguay/uruguay-t.jpg'}}]}"
76,ChIJzSL_zgDCEI8RtRWsP-Wn-sg,Nicaragua,Nicaragua,157.0,558.0,NI,NIC,False,Nicaragua,Nicaragua,"{'header': [{'caption': 'Nicaragua', 'paths': {'original': 'https://cdn2.civitatis.com/nicaragua/nicaragua-o.jpg', 'thumbnail': 'https://cdn2.civitatis.com/nicaragua/nicaragua-t.jpg'}}]}"
77,ChIJ-foSwT5bXI8RTuMeP02KSvY,Belize,Belice,25.0,84.0,BZ,BLZ,False,Belize,Belize,"{'header': [{'caption': 'Belize', 'paths': {'original': 'https://cdn2.civitatis.com/belize/belize-o.jpg', 'thumbnail': 'https://cdn2.civitatis.com/belize/belize-t.jpg'}}]}"
78,ChIJs8LYYK_vr40RQETltmeI40g,Guyana,Guyana,99.0,328.0,GY,GUY,False,Guyana,Guyana,"{'header': [{'caption': 'Guyana', 'paths': {'original': 'https://cdn2.civitatis.com/guyana/guyana-o.jpg', 'thumbnail': 'https://cdn2.civitatis.com/guyana/guyana-t.jpg'}}]}"
79,ChIJnXHPxhsq2o4R-g4StcDRoFk,Jamaica,Jamaica,113.0,388.0,JM,JAM,False,Jamaica,Jamaica,"{'header': [{'caption': 'Jamaica', 'paths': {'original': 'https://cdn2.civitatis.com/jamaica/jamaica-o.jpg', 'thumbnail': 'https://cdn2.civitatis.com/jamaica/jamaica-t.jpg'}}]}"
80,ChIJ23da4s84hY4RL4yBiT6KavE,Aruba,Aruba,15.0,533.0,AW,ABW,False,Aruba,Aruba,"{'header': [{'caption': 'Aruba', 'paths': {'original': 'https://cdn2.civitatis.com/aruba/aruba-o.jpg', 'thumbnail': 'https://cdn2.civitatis.com/aruba/aruba-t.jpg'}}]}"
81,ChIJPQ9Isjua1ogR5XnHaoO0PhM,The Bahamas,Las Bahamas,19.0,44.0,BS,BHS,False,The Bahamas,The Bahamas,"{'header': [{'caption': 'The Bahamas', 'paths': {'original': 'https://cdn2.civitatis.com/the-bahamas/the-bahamas-o.jpg', 'thumbnail': 'https://cdn2.civitatis.com/the-bahamas/the-bahamas-t.jpg'}}]}"
82,ChIJx_3HYr6dhI4RI0fG2yiSf_w,Curaçao,Curaçao,262.0,530.0,AN,ANT,False,Curazao,Curaçao,"{'header': [{'caption': 'Curazao', 'paths': {'original': 'https://cdn2.civitatis.com/curazao/curazao-o.jpg', 'thumbnail': 'https://cdn2.civitatis.com/curazao/curazao-t.jpg'}}]}"
83,ChIJzVNkK5xzBYwRPTvsse5woG0,British Virgin Islands,Islas Vírgenes Británicas,234.0,92.0,VG,VGB,False,British Virgin Islands,British Virgin Islands,"{'header': [{'caption': 'British Virgin Islands', 'paths': {'original': 'https://cdn2.civitatis.com/british-virgin-islands/british-virgin-islands-o.jpg', 'thumbnail': 'https://cdn2.civitatis.com/british-virgin-islands/british-virgin-islands-t.jpg'}}]}"
84,ChIJxbZQY5cHNowRJ_E5xlUoCP8,Trinidad and Tobago,Trinidad y Tobago,221.0,780.0,TT,TTO,False,Trinidad and Tobago,Trinidad and Tobago,"{'header': [{'caption': 'Trinidad and Tobago', 'paths': {'original': 'https://cdn2.civitatis.com/trinidad-and-tobago/trinidad-and-tobago-o.jpg', 'thumbnail': 'https://cdn2.civitatis.com/trinidad-and-tobago/trinidad-and-tobago-t.jpg'}}]}"
85,ChIJoxoyrvvxQ4wRKzb0jLNR7A4,Barbados,Barbados,22.0,52.0,BB,BRB,False,Barbados,Barbados,"{'header': [{'caption': 'Barbados', 'paths': {'original': 'https://cdn2.civitatis.com/barbados/barbados-o.jpg', 'thumbnail': 'https://cdn2.civitatis.com/barbados/barbados-t.jpg'}}]}"
86,ChIJU9f3hVcVEo0RRvQKD-n3J94,French Guyana,Guyana Francesa,95.0,254.0,GF,GUF,False,French Guiana,French Guyana,"{'header': [{'caption': 'French Guiana', 'paths': {'original': 'https://cdn2.civitatis.com/french-guiana/french-guiana-o.jpg', 'thumbnail': 'https://cdn2.civitatis.com/french-guiana/french-guiana-t.jpg'}}]}"
87,ChIJUdXT2dU2CI0RsjYpccDhNxA,Suriname,Suriname,209.0,740.0,SR,SUR,False,Suriname,Suriname,"{'header': [{'caption': 'Suriname', 'paths': {'original': 'https://cdn2.civitatis.com/suriname/suriname-o.jpg', 'thumbnail': 'https://cdn2.civitatis.com/suriname/suriname-t.jpg'}}]}"
88,ChIJdWu7vlVfS4kR3sGNAoDHEX4,Turks and Caicos Islands,Islas Turcas y Caicos,223.0,796.0,TC,TCA,False,Turks and Caicos Islands,Turks and Caicos Islands,"{'header': [{'caption': 'Turks and Caicos Islands', 'paths': {'original': 'https://cdn2.civitatis.com/turks-and-caicos-islands/turks-and-caicos-islands-o.jpg', 'thumbnail': 'https://cdn2.civitatis.com/turks-and-caicos-islands/turks-and-caicos-islands-t.jpg'}}]}"
89,ChIJuaza8mUQBYwRBRzFGx2JHfk,U.S. Virgin Islands,Islas Vírgenes de los Estados Unidos,235.0,850.0,VI,VIR,False,The U.S. Virgin Islands,U.S. Virgin Islands,"{'header': [{'caption': 'The U.S. Virgin Islands', 'paths': {'original': 'https://cdn2.civitatis.com/united-states-virgin-islands/united-states-virgin-islands-o.jpg', 'thumbnail': 'https://cdn2.civitatis.com/united-states-virgin-islands/united-states-virgin-islands-t.jpg'}}]}"
90,ChIJt7kdj4sYIowRz7WDIdc1beE,Caribbean Netherlands,Caribe Neerlandés,276.0,535.0,BQ,BES,False,Bonaire,Bonaire,"{'header': [{'caption': 'Bonaire', 'paths': {'original': 'https://cdn2.civitatis.com/bonaire/bonaire-o.jpg', 'thumbnail': 'https://cdn2.civitatis.com/bonaire/bonaire-t.jpg'}}]}"
91,ChIJ0XuH9IkXOIwRjk8fWgHH2DY,Grenada,Granada,89.0,308.0,GD,GRD,False,Grenada,Grenada,"{'header': [{'caption': 'Grenada', 'paths': {'original': 'https://cdn2.civitatis.com/grenada/grenada-o.jpg', 'thumbnail': 'https://cdn2.civitatis.com/grenada/grenada-t.jpg'}}]}"
92,ChIJUX0od1p1DowRqwdKtzc-vuw,Guadeloupe,Guadalupe,92.0,312.0,GP,GLP,False,Guadeloupe,Guadeloupe,"{'header': [{'caption': 'Guadeloupe', 'paths': {'original': 'https://cdn2.civitatis.com/guadeloupe/guadeloupe-o.jpg', 'thumbnail': 'https://cdn2.civitatis.com/guadeloupe/guadeloupe-t.jpg'}}]}"
93,ChIJDQdmAPmgaowRsOevFxIbAOE,Martinique,Martinica,142.0,474.0,MQ,MTQ,False,Martinique,Martinique,"{'header': [{'caption': 'Martinique', 'paths': {'original': 'https://cdn2.civitatis.com/martinique/martinique-o.jpg', 'thumbnail': 'https://cdn2.civitatis.com/martinique/martinique-t.jpg'}}]}"
94,ChIJHaMt8WVgQIwR9Z056MSGdG4,Saint Lucia,Santa Lucía,194.0,662.0,LC,LCA,False,Saint Lucia,Saint Lucia,"{'header': [{'caption': 'Saint Lucia', 'paths': {'original': 'https://cdn2.civitatis.com/saint-lucia/saint-lucia-o.jpg', 'thumbnail': 'https://cdn2.civitatis.com/saint-lucia/saint-lucia-t.jpg'}}]}"
95,ChIJKaq4Lz6GJY8RXnFwh9PERXA,Cayman Islands,Islas Caimán,39.0,136.0,KY,CYM,False,Cayman Islands,Cayman Islands,"{'header': [{'caption': 'Cayman Islands', 'paths': {'original': 'https://cdn2.civitatis.com/cayman-islands/cayman-islands-o.jpg', 'thumbnail': 'https://cdn2.civitatis.com/cayman-islands/cayman-islands-t.jpg'}}]}"
96,ChIJFVoV8vrSFIwRPP06BQmRs0k,Dominica,Dominica,64.0,212.0,DM,DMA,False,Dominica,Dominica,"{'header': [{'caption': 'Dominica', 'paths': {'original': 'https://cdn2.civitatis.com/dominica/dominica-o.jpg', 'thumbnail': 'https://cdn2.civitatis.com/dominica/dominica-t.jpg'}}]}"
97,ChIJo-ORRLmJKrwROsXZjf-qKjI,Falkland Islands,Islas Malvinas,138.0,238.0,FK,FLK,False,The Falkland Islands,Falkland Islands,"{'header': [{'caption': 'The Falkland Islands', 'paths': {'original': 'https://cdn2.civitatis.com/falkland-islands/falkland-islands-o.jpg', 'thumbnail': 'https://cdn2.civitatis.com/falkland-islands/falkland-islands-t.jpg'}}]}"
98,ChIJDXKKxm4ZEowR6IYdmsaa6d4,Saint Kitts and Nevis,Saint Kitts y Nevis,189.0,659.0,KN,KNA,False,Saint Kitts and Nevis,Saint Kitts and Nevis,"{'header': [{'caption': 'Saint Kitts and Nevis', 'paths': {'original': 'https://cdn2.civitatis.com/saint-kitts-and-nevis/saint-kitts-and-nevis-o.jpg', 'thumbnail': 'https://cdn2.civitatis.com/saint-kitts-and-nevis/saint-kitts-and-nevis-t.jpg'}}]}"
99,ChIJ5QHvjnRjDowRgdTghNNqnTs,Anguilla,Anguila,7.0,660.0,AI,AIA,False,Anguilla,Anguilla,"{'header': [{'caption': 'Anguilla', 'paths': {'original': 'https://cdn2.civitatis.com/anguilla/anguilla-o.jpg', 'thumbnail': 'https://cdn2.civitatis.com/anguilla/anguilla-t.jpg'}}]}"
100,ChIJwdG4bbluDYwRlHmL4Yg3aic,Antigua and Barbuda,Antigua y Barbuda,9.0,28.0,AG,ATG,False,Antigua and Barbuda,Antigua and Barbuda,"{'header': [{'caption': 'Antigua and Barbuda', 'paths': {'original': 'https://cdn2.civitatis.com/antigua-and-barbuda/antigua-and-barbuda-o.jpg', 'thumbnail': 'https://cdn2.civitatis.com/antigua-and-barbuda/antigua-and-barbuda-t.jpg'}}]}"
101,ChIJw5D41mJuDowRQo8zJsIsi3I,Sint Maarten,Sint Maarten,,,,,,,,
102,ChIJuzU5nuKsQIwRsaHSjejT_TE,Saint Vincent and the Grenadines,San Vicente y las Granadinas,192.0,670.0,VC,VCT,False,Saint Vincent and the Grenadines,Saint Vincent and the Grenadines,"{'header': [{'caption': 'Saint Vincent and the Grenadines', 'paths': {'original': 'https://cdn2.civitatis.com/saint-vincent-and-the-grenadines/saint-vincent-and-the-grenadines-o.jpg', 'thumbnail': 'https://cdn2.civitatis.com/saint-vincent-and-the-grenadines/saint-vincent-and-the-grenadines-t.jpg'}}]}"
103,ChIJnTbH4VOrE4wRorEFiIPqDx4,Montserrat,Montserrat,151.0,500.0,MS,MSR,False,Montserrat,Montserrat,"{'header': [{'caption': 'Montserrat', 'paths': {'original': 'https://cdn2.civitatis.com/montserrat/montserrat-o.jpg', 'thumbnail': 'https://cdn2.civitatis.com/montserrat/montserrat-t.jpg'}}]}"
104,ChIJJXmoUuK2PbkRvbBNiNp8434,South Georgia and the South Sandwich Islands,Islas Georgias del Sur y Sandwich del Sur,86.0,239.0,GS,SGS,False,South Georgia and the South Sandwich Islands,South Georgia and the South Sandwich Islands,"{'header': [{'caption': 'South Georgia and the South Sandwich Islands', 'paths': {'original': 'https://cdn2.civitatis.com/south-georgia-and-the-south-sandwich-islands/south-georgia-and-the-south-sandwich-islands-o.jpg', 'thumbnail': 'https://cdn2.civitatis.com/south-georgia-and-the-south-sandwich-islands/south-georgia-and-the-south-sandwich-islands-t.jpg'}}]}"
105,ChIJh5Z3Fw4gLG0RM0dqdeIY1rE,New Zealand,Nueva Zelanda,164.0,554.0,NZ,NZL,False,New Zealand ,New Zealand ,"{'header': [{'caption': 'New Zealand ', 'paths': {'original': 'https://cdn2.civitatis.com/new-zealand/new-zealand-o.jpg', 'thumbnail': 'https://cdn2.civitatis.com/new-zealand/new-zealand-t.jpg'}}]}"
106,ChIJ38WHZwf9KysRUhNblaFnglM,Australia,Australia,16.0,36.0,AU,AUS,False,Australia,Australia,"{'header': [{'caption': 'Australia', 'paths': {'original': 'https://cdn2.civitatis.com/australia/australia-o.jpg', 'thumbnail': 'https://cdn2.civitatis.com/australia/australia-t.jpg'}}]}"
107,ChIJXdw8cP2QGW4Rk1vvRpkxnJ4,Fiji,Fiji,81.0,242.0,FJ,FJI,False,Fiji,Fiji,"{'header': [{'caption': 'Fiji', 'paths': {'original': 'https://cdn2.civitatis.com/fiji/fiji-o.jpg', 'thumbnail': 'https://cdn2.civitatis.com/fiji/fiji-t.jpg'}}]}"
108,ChIJE8hYrMW12WURJWWk-s2NelQ,Micronesia,Micronesia,147.0,583.0,FM,FSM,False,Micronesia,Micronesia,"{'header': [{'caption': 'Micronesia', 'paths': {'original': 'https://cdn2.civitatis.com/micronesia/micronesia-o.jpg', 'thumbnail': 'https://cdn2.civitatis.com/micronesia/micronesia-t.jpg'}}]}"
109,ChIJAxDsZKMTpXERcnhhdJYMh6Y,Samoa,Samoa,187.0,882.0,WS,WSM,False,Samoa,Samoa,"{'header': [{'caption': 'Samoa', 'paths': {'original': 'https://cdn2.civitatis.com/samoa/samoa-o.jpg', 'thumbnail': 'https://cdn2.civitatis.com/samoa/samoa-t.jpg'}}]}"
110,ChIJHdCfu0S2k3ERqeJexcrMbfM,Tonga,Tonga,220.0,776.0,TO,TON,False,Tonga,Tonga,"{'header': [{'caption': 'Tonga', 'paths': {'original': 'https://cdn2.civitatis.com/tonga/tonga-o.jpg', 'thumbnail': 'https://cdn2.civitatis.com/tonga/tonga-t.jpg'}}]}"
111,ChIJmQOvorRFhDIRu-uhOd0e7RI,Palau,Palau,168.0,585.0,PW,PLW,False,Palau,Palau,"{'header': [{'caption': 'Palau', 'paths': {'original': 'https://cdn2.civitatis.com/palau/palau-o.jpg', 'thumbnail': 'https://cdn2.civitatis.com/palau/palau-t.jpg'}}]}"
112,ChIJA4cCwpF8ZGURB8NSAQR9MoQ,Kiribati,Kiribati,119.0,296.0,KI,KIR,False,Kiribati,Kiribati,"{'header': [{'caption': 'Kiribati', 'paths': {'original': 'https://cdn2.civitatis.com/kiribati/kiribati-o.jpg', 'thumbnail': 'https://cdn2.civitatis.com/kiribati/kiribati-t.jpg'}}]}"
113,ChIJE2CSyF5giW4RaibQvs85gzQ,Vanuatu,Vanuatu,231.0,548.0,VU,VUT,False,Vanuatu,Vanuatu,"{'header': [{'caption': 'Vanuatu', 'paths': {'original': 'https://cdn2.civitatis.com/vanuatu/vanuatu-o.jpg', 'thumbnail': 'https://cdn2.civitatis.com/vanuatu/vanuatu-t.jpg'}}]}"
114,ChIJTddtfNB1GHQREVfDCXp6wJs,French Polynesia,Polinesia Francesa,175.0,258.0,PF,PYF,False,French Polynesia,French Polynesia,"{'header': [{'caption': 'French Polynesia', 'paths': {'original': 'https://cdn2.civitatis.com/french-polynesia/french-polynesia-o.jpg', 'thumbnail': 'https://cdn2.civitatis.com/french-polynesia/french-polynesia-t.jpg'}}]}"
115,ChIJ0QlQVeBR02gRgClEF6DATLQ,Solomon Islands,Islas Salomón,186.0,90.0,SB,SLB,False,Solomon Islands,Solomon Islands,"{'header': [{'caption': 'Solomon Islands', 'paths': {'original': 'https://cdn2.civitatis.com/solomon-islands/solomon-islands-o.jpg', 'thumbnail': 'https://cdn2.civitatis.com/solomon-islands/solomon-islands-t.jpg'}}]}"
116,ChIJr54Ov6_oWWgRehKcjg3l8No,Papua New Guinea,Papua Nueva Guinea,171.0,598.0,PG,PNG,False,Papua New Guinea,Papua New Guinea,"{'header': [{'caption': 'Papua New Guinea', 'paths': {'original': 'https://cdn2.civitatis.com/papua-new-guinea/papua-new-guinea-o.jpg', 'thumbnail': 'https://cdn2.civitatis.com/papua-new-guinea/papua-new-guinea-t.jpg'}}]}"
117,ChIJTaCxWbmcwW8RLhIHB2hUZ48,Tuvalu,Tuvalu,226.0,798.0,TV,TUV,False,Tuvalu,Tuvalu,"{'header': [{'caption': 'Tuvalu', 'paths': {'original': 'https://cdn2.civitatis.com/tuvalu/tuvalu-o.jpg', 'thumbnail': 'https://cdn2.civitatis.com/tuvalu/tuvalu-t.jpg'}}]}"
118,ChIJ7yQPk_92H2cRpuWzxZGucVU,Guam,Guam,93.0,316.0,GU,GUM,False,Guam,Guam,"{'header': [{'caption': 'Guam', 'paths': {'original': 'https://cdn2.civitatis.com/guam/guam-o.jpg', 'thumbnail': 'https://cdn2.civitatis.com/guam/guam-t.jpg'}}]}"
119,ChIJTVvkHR8cfW8RgQrUxfSd2Vk,Nauru,Nauru,155.0,520.0,NR,NRU,False,Nauru,Nauru,"{'header': [{'caption': 'Nauru', 'paths': {'original': 'https://cdn2.civitatis.com/nauru/nauru-o.jpg', 'thumbnail': 'https://cdn2.civitatis.com/nauru/nauru-t.jpg'}}]}"
120,ChIJK8opIbIZAWURdrcJqugDPos,Marshall Islands,Islas Marshall,141.0,584.0,MH,MHL,False,Marshall Islands,Marshall Islands,"{'header': [{'caption': 'Marshall Islands', 'paths': {'original': 'https://cdn2.civitatis.com/marshall-islands/marshall-islands-o.jpg', 'thumbnail': 'https://cdn2.civitatis.com/marshall-islands/marshall-islands-t.jpg'}}]}"
121,ChIJyzIaP2niJ2wR7HqT1Y_20PY,New Caledonia,Nueva Caledonia,163.0,540.0,NC,NCL,False,New Caledonia,New Caledonia,"{'header': [{'caption': 'New Caledonia', 'paths': {'original': 'https://cdn2.civitatis.com/new-caledonia/new-caledonia-o.jpg', 'thumbnail': 'https://cdn2.civitatis.com/new-caledonia/new-caledonia-t.jpg'}}]}"
122,ChIJ3d57ue-KVHER2LQIiA6lTAI,Cook Islands,Islas Cook,56.0,184.0,CK,COK,False,Cook Islands,Cook Islands,"{'header': [{'caption': 'Cook Islands', 'paths': {'original': 'https://cdn2.civitatis.com/cook-islands/cook-islands-o.jpg', 'thumbnail': 'https://cdn2.civitatis.com/cook-islands/cook-islands-t.jpg'}}]}"
123,ChIJyf1IkreEpnER3UuuLZ5z7vM,American Samoa,Samoa Americana,188.0,16.0,AS,ASM,False,American Samoa,American Samoa,"{'header': [{'caption': 'American Samoa', 'paths': {'original': 'https://cdn2.civitatis.com/american-samoa/american-samoa-o.jpg', 'thumbnail': 'https://cdn2.civitatis.com/american-samoa/american-samoa-t.jpg'}}]}"
124,ChIJUVyZkDSx2GYRMg46fKvrt50,Northern Mariana Islands,Islas Marianas del Norte,139.0,580.0,MP,MNP,False,Northern Mariana Islands,Northern Mariana Islands,"{'header': [{'caption': 'Northern Mariana Islands', 'paths': {'original': 'https://cdn2.civitatis.com/n-a/n-a-o.jpg', 'thumbnail': 'https://cdn2.civitatis.com/n-a/n-a-t.jpg'}}]}"
125,ChIJO7duNyolnXERGIvcezR4QpE,Niue,Niue,160.0,570.0,NU,NIU,False,Niue,Niue,"{'header': [{'caption': 'Niue', 'paths': {'original': 'https://cdn2.civitatis.com/niue/niue-o.jpg', 'thumbnail': 'https://cdn2.civitatis.com/niue/niue-t.jpg'}}]}"
127,ChIJiweo3H8POJ4RyJoVGceMnEY,Pitcairn Islands,Islas Pitcairn,174.0,612.0,PN,PCN,False,The Pitcairn Islands,Pitcairn Islands,"{'header': [{'caption': 'The Pitcairn Islands', 'paths': {'original': 'https://cdn2.civitatis.com/pitcairn-islands/pitcairn-islands-o.jpg', 'thumbnail': 'https://cdn2.civitatis.com/pitcairn-islands/pitcairn-islands-t.jpg'}}]}"
128,ChIJPUsabgaxyHERGwrSj-wYyRY,Wallis and Fortuna,Wallis y Fortuna,236.0,876.0,WF,WLF,False,Wallis and Futuna,Wallis and Fortuna,"{'header': [{'caption': 'Wallis and Futuna', 'paths': {'original': 'https://cdn2.civitatis.com/wallis-and-futuna/wallis-and-futuna-o.jpg', 'thumbnail': 'https://cdn2.civitatis.com/wallis-and-futuna/wallis-and-futuna-t.jpg'}}]}"
129,ChIJJ4utyk7yURoRPU5KDZ0oClk,Angola,Angola,6.0,24.0,AO,AGO,False,Angola,Angola,"{'header': [{'caption': 'Angola', 'paths': {'original': 'https://cdn2.civitatis.com/angola/angola-o.jpg', 'thumbnail': 'https://cdn2.civitatis.com/angola/angola-t.jpg'}}]}"
130,ChIJ0XsDKGqKfg0RovjXq-O-QHE,Algeria,Argelia,12.0,12.0,DZ,DZA,False,Algeria,Algeria,"{'header': [{'caption': 'Algeria', 'paths': {'original': 'https://cdn2.civitatis.com/algeria/algeria-o.jpg', 'thumbnail': 'https://cdn2.civitatis.com/algeria/algeria-t.jpg'}}]}"
131,ChIJlVZ6BCtUIxAR9S5iy_h3suw,Benin,Benín,26.0,204.0,BJ,BEN,False,Benin,Benin,"{'header': [{'caption': 'Benin', 'paths': {'original': 'https://cdn2.civitatis.com/benin/benin-o.jpg', 'thumbnail': 'https://cdn2.civitatis.com/benin/benin-t.jpg'}}]}"
132,ChIJESJF0SFDpB4Re68Vhyp8ZPE,Botswana,Botsuana,31.0,72.0,BW,BWA,False,Botswana,Botswana,"{'header': [{'caption': 'Botswana', 'paths': {'original': 'https://cdn2.civitatis.com/botswana/botswana-o.jpg', 'thumbnail': 'https://cdn2.civitatis.com/botswana/botswana-t.jpg'}}]}"
133,ChIJm3Cm1SbKLQ4Rq22DRu0Kkyc,Burkina Faso,Burkina Faso,36.0,854.0,BF,BFA,False,Burkina Faso,Burkina Faso,"{'header': [{'caption': 'Burkina Faso', 'paths': {'original': 'https://cdn2.civitatis.com/burkina-faso/burkina-faso-o.jpg', 'thumbnail': 'https://cdn2.civitatis.com/burkina-faso/burkina-faso-t.jpg'}}]}"
134,ChIJW_FUNtNEwRkRjewxVg5NI7E,Burundi,Burundi,37.0,108.0,BI,BDI,False,Burundi,Burundi,"{'header': [{'caption': 'Burundi', 'paths': {'original': 'https://cdn2.civitatis.com/burundi/burundi-o.jpg', 'thumbnail': 'https://cdn2.civitatis.com/burundi/burundi-t.jpg'}}]}"
135,ChIJMVERWSGPNQkRH-oY-TbyGms,Cape Verde,Cabo Verde,38.0,132.0,CV,CPV,False,Cape Verde,Cape Verde,"{'header': [{'caption': 'Cape Verde', 'paths': {'original': 'https://cdn2.civitatis.com/cape-verde/cape-verde-o.jpg', 'thumbnail': 'https://cdn2.civitatis.com/cape-verde/cape-verde-t.jpg'}}]}"
136,ChIJIQ8-cFM3YRARU5uCmUXEAys,Cameroon,Camerún,41.0,120.0,CM,CMR,False,Cameroon,Cameroon,"{'header': [{'caption': 'Cameroon', 'paths': {'original': 'https://cdn2.civitatis.com/cameroon/cameroon-o.jpg', 'thumbnail': 'https://cdn2.civitatis.com/cameroon/cameroon-t.jpg'}}]}"
137,ChIJYXNnvXg55xARnIDAzluDYDs,Chad,Chad,44.0,148.0,TD,TCD,False,Chad,Chad,"{'header': [{'caption': 'Chad', 'paths': {'original': 'https://cdn2.civitatis.com/chad/chad-o.jpg', 'thumbnail': 'https://cdn2.civitatis.com/chad/chad-t.jpg'}}]}"
138,ChIJjaQIZAPjmBgR29Tf5L5_Cvc,Comoros,Comoras,53.0,174.0,KM,COM,False,Comoros,Comoros,"{'header': [{'caption': 'Comoros', 'paths': {'original': 'https://cdn2.civitatis.com/comoros/comoros-o.jpg', 'thumbnail': 'https://cdn2.civitatis.com/comoros/comoros-t.jpg'}}]}"
139,ChIJZ6BJsIcTlg8RQO65fGIe-QE,Ivory Coast,Costa de Marfil,59.0,384.0,CI,CIV,False,Ivory Coast,Ivory Coast,"{'header': [{'caption': 'Ivory Coast', 'paths': {'original': 'https://cdn2.civitatis.com/ivory-coast/ivory-coast-o.jpg', 'thumbnail': 'https://cdn2.civitatis.com/ivory-coast/ivory-coast-t.jpg'}}]}"
140,ChIJ6TZcw3aJNhQRRMTEJQmgRSw,Egypt,Egipto,67.0,818.0,EG,EGY,True,Egypt,Egypt,"{'header': [{'caption': 'Egypt', 'paths': {'original': 'https://cdn2.civitatis.com/egypt/egypt-o.jpg', 'thumbnail': 'https://cdn2.civitatis.com/egypt/egypt-t.jpg'}}]}"
141,ChIJZYW6nT9abRYR-g4SL_AIwhc,Eritrea,Eritrea,70.0,232.0,ER,ERI,False,Eritrea,Eritrea,"{'header': [{'caption': 'Eritrea', 'paths': {'original': 'https://cdn2.civitatis.com/eritrea/eritrea-o.jpg', 'thumbnail': 'https://cdn2.civitatis.com/eritrea/eritrea-t.jpg'}}]}"
142,ChIJK_1s3c7QNRYRWsVIU3-m9ns,Ethiopia,Etiopía,77.0,231.0,ET,ETH,False,Ethiopia,Ethiopia,"{'header': [{'caption': 'Ethiopia', 'paths': {'original': 'https://cdn2.civitatis.com/ethiopia/ethiopia-o.jpg', 'thumbnail': 'https://cdn2.civitatis.com/ethiopia/ethiopia-t.jpg'}}]}"
143,ChIJ7fM4VIo7fxARFWt4Ng7DDHs,Gabon,Gabón,83.0,266.0,GA,GAB,False,Gabon,Gabon,"{'header': [{'caption': 'Gabon', 'paths': {'original': 'https://cdn2.civitatis.com/gabon/gabon-o.jpg', 'thumbnail': 'https://cdn2.civitatis.com/gabon/gabon-t.jpg'}}]}"
144,ChIJBzivZSmcwg4RKp0Ta0BMSp4,Gambia,Gambia,84.0,270.0,GM,GMB,False,The Gambia,Gambia,"{'header': [{'caption': 'The Gambia', 'paths': {'original': 'https://cdn2.civitatis.com/the-gambia/the-gambia-o.jpg', 'thumbnail': 'https://cdn2.civitatis.com/the-gambia/the-gambia-t.jpg'}}]}"
145,ChIJx9baqM1a1w8RNtKT0DDy11Q,Ghana,Ghana,87.0,288.0,GH,GHA,False,Ghana,Ghana,"{'header': [{'caption': 'Ghana', 'paths': {'original': 'https://cdn2.civitatis.com/ghana/ghana-o.jpg', 'thumbnail': 'https://cdn2.civitatis.com/ghana/ghana-t.jpg'}}]}"
146,ChIJP5XOvCGzAQ8R9i1a18t7c-g,Guinea,Guinea,96.0,324.0,GN,GIN,False,Guinea,Guinea,"{'header': [{'caption': 'Guinea', 'paths': {'original': 'https://cdn2.civitatis.com/guinea/guinea-o.jpg', 'thumbnail': 'https://cdn2.civitatis.com/guinea/guinea-t.jpg'}}]}"
147,ChIJ8amCr3Q85A4RTggeVz-O6Ls,Guinea-Bissau,Guinea-Bisáu,98.0,624.0,GW,GNB,False,Guinea-Bissau,Guinea-Bissau,"{'header': [{'caption': 'Guinea-Bissau', 'paths': {'original': 'https://cdn2.civitatis.com/guinea-bissau/guinea-bissau-o.jpg', 'thumbnail': 'https://cdn2.civitatis.com/guinea-bissau/guinea-bissau-t.jpg'}}]}"
148,ChIJp4euX2A6ZBARet4QLKKicMg,Equatorial Guinea,Guinea Ecuatorial,97.0,226.0,GQ,GNQ,False,Equatorial Guinea,Equatorial Guinea,"{'header': [{'caption': 'Equatorial Guinea', 'paths': {'original': 'https://cdn2.civitatis.com/equatorial-guinea/equatorial-guinea-o.jpg', 'thumbnail': 'https://cdn2.civitatis.com/equatorial-guinea/equatorial-guinea-t.jpg'}}]}"
149,ChIJD5BQg9CAJxgR2W2XobAOO0A,Kenya,Kenia,117.0,404.0,KE,KEN,False,Kenya,Kenya,"{'header': [{'caption': 'Kenya', 'paths': {'original': 'https://cdn2.civitatis.com/kenya/kenya-o.jpg', 'thumbnail': 'https://cdn2.civitatis.com/kenya/kenya-t.jpg'}}]}"
150,ChIJ64xf1idIjB4Rsx7ReLhXLSM,Lesotho,Lesoto,122.0,426.0,LS,LSO,False,Lesotho,Lesotho,"{'header': [{'caption': 'Lesotho', 'paths': {'original': 'https://cdn2.civitatis.com/lesotho/lesotho-o.jpg', 'thumbnail': 'https://cdn2.civitatis.com/lesotho/lesotho-t.jpg'}}]}"
151,ChIJwfyp1AP4CQ8Rc2PRMmso038,Liberia,Liberia,125.0,430.0,LR,LBR,False,Liberia,Liberia,"{'header': [{'caption': 'Liberia', 'paths': {'original': 'https://cdn2.civitatis.com/liberia/liberia-o.jpg', 'thumbnail': 'https://cdn2.civitatis.com/liberia/liberia-t.jpg'}}]}"
152,ChIJDQHOjtmSqBMRKsL5x0FgB_o,Libye,Libia,126.0,434.0,LY,LBY,False,Libya,Libya,"{'header': [{'caption': 'Libya', 'paths': {'original': 'https://cdn2.civitatis.com/libya/libya-o.jpg', 'thumbnail': 'https://cdn2.civitatis.com/libya/libya-t.jpg'}}]}"
153,ChIJRYUj6uOk0SERiBN7l8HjRFI,Madagascar,Madagascar,132.0,450.0,MG,MDG,False,Madagascar,Madagascar,"{'header': [{'caption': 'Madagascar', 'paths': {'original': 'https://cdn2.civitatis.com/madagascar/madagascar-o.jpg', 'thumbnail': 'https://cdn2.civitatis.com/madagascar/madagascar-t.jpg'}}]}"
154,ChIJ18ATk91b2BgRQ4VmKRcuo0Q,Malawi,Malaui,134.0,454.0,MW,MWI,False,Malawi,Malawi,"{'header': [{'caption': 'Malawi', 'paths': {'original': 'https://cdn2.civitatis.com/malawi/malawi-o.jpg', 'thumbnail': 'https://cdn2.civitatis.com/malawi/malawi-t.jpg'}}]}"
155,ChIJz3MQG4g-FA4RgM-9oOJbOrs,Mali,Mali,136.0,466.0,ML,MLI,False,Mali,Mali,"{'header': [{'caption': 'Mali', 'paths': {'original': 'https://cdn2.civitatis.com/mali/mali-o.jpg', 'thumbnail': 'https://cdn2.civitatis.com/mali/mali-t.jpg'}}]}"
156,ChIJjcVRlmGICw0Rw_8sxIGT09k,Morocco,Marruecos,140.0,504.0,MA,MAR,True,Morocco,Morocco,"{'header': [{'caption': 'Morocco', 'paths': {'original': 'https://cdn2.civitatis.com/morocco/morocco-o.jpg', 'thumbnail': 'https://cdn2.civitatis.com/morocco/morocco-t.jpg'}}]}"
157,ChIJyXRE-U1QfCERMdBrEcLZA0I,Mauritius,Mauricio,143.0,480.0,MU,MUS,True,Mauritius,Mauritius,"{'header': [{'caption': 'Mauritius', 'paths': {'original': 'https://cdn2.civitatis.com/mauritius/mauritius-o.jpg', 'thumbnail': 'https://cdn2.civitatis.com/mauritius/mauritius-t.jpg'}}]}"
158,ChIJTzmzFMO4gA4RTlO-1usLIoM,Mauritania,Mauritania,144.0,478.0,MR,MRT,False,Mauritania,Mauritania,"{'header': [{'caption': 'Mauritania', 'paths': {'original': 'https://cdn2.civitatis.com/mauritania/mauritania-o.jpg', 'thumbnail': 'https://cdn2.civitatis.com/mauritania/mauritania-t.jpg'}}]}"
159,ChIJxUr95uqs1BgRFaEWrrm_uxI,Mozambique,Mozambique,152.0,508.0,MZ,MOZ,False,Mozambique,Mozambique,"{'header': [{'caption': 'Mozambique', 'paths': {'original': 'https://cdn2.civitatis.com/mozambique/mozambique-o.jpg', 'thumbnail': 'https://cdn2.civitatis.com/mozambique/mozambique-t.jpg'}}]}"
160,ChIJIXXTbn489RsRYbLsqKXludM,Namibia,Namibia,154.0,516.0,NA,NAM,False,Namibia,Namibia,"{'header': [{'caption': 'Namibia', 'paths': {'original': 'https://cdn2.civitatis.com/namibia/namibia-o.jpg', 'thumbnail': 'https://cdn2.civitatis.com/namibia/namibia-t.jpg'}}]}"
161,ChIJXa-hxnrsmRER1CSOFQqSM8k,Niger,Níger,158.0,562.0,NE,NER,False,Niger,Niger,"{'header': [{'caption': 'Niger', 'paths': {'original': 'https://cdn2.civitatis.com/niger/niger-o.jpg', 'thumbnail': 'https://cdn2.civitatis.com/niger/niger-t.jpg'}}]}"
162,ChIJDY2kfa8LThARyAvFaEH-qJk,Nigeria,Nigeria,159.0,566.0,NG,NGA,False,Nigeria,Nigeria,"{'header': [{'caption': 'Nigeria', 'paths': {'original': 'https://cdn2.civitatis.com/nigeria/nigeria-o.jpg', 'thumbnail': 'https://cdn2.civitatis.com/nigeria/nigeria-t.jpg'}}]}"
163,ChIJt6KGjVPpuBARJIBcWgLGm7g,Central African Republic,República Centroafricana,43.0,140.0,CF,CAF,False,Central African Republic,Central African Republic,"{'header': [{'caption': 'Central African Republic', 'paths': {'original': 'https://cdn2.civitatis.com/central-african-republic/central-african-republic-o.jpg', 'thumbnail': 'https://cdn2.civitatis.com/central-african-republic/central-african-republic-t.jpg'}}]}"
164,ChIJCROj3WOlYBoRj2z8FM96AVU,Republic of the Congo,República del Congo,55.0,178.0,CG,COG,False,Congo,Republic of the Congo,"{'header': [{'caption': 'Congo', 'paths': {'original': 'https://cdn2.civitatis.com/congo/congo-o.jpg', 'thumbnail': 'https://cdn2.civitatis.com/congo/congo-t.jpg'}}]}"
165,ChIJvUZ1ms_6eRkRQfGTrF4-xgQ,Democratic Republic of the Congo,República Democrática del Congo,54.0,180.0,CD,COD,False,The Democratic Republic of the Congo,Democratic Republic of the Republic of the Congo,"{'header': [{'caption': 'The Democratic Republic of the Congo', 'paths': {'original': 'https://cdn2.civitatis.com/democratic-republic-of-the-congo/democratic-republic-of-the-congo-o.jpg', 'thumbnail': 'https://cdn2.civitatis.com/democratic-republic-of-the-congo/democratic-republic-of-the-congo-t.jpg'}}]}"
166,ChIJ40A451SWwhkRA6HMyyawkHQ,Rwanda,Ruanda,182.0,646.0,RW,RWA,False,Rwanda,Rwanda,"{'header': [{'caption': 'Rwanda', 'paths': {'original': 'https://cdn2.civitatis.com/rwanda/rwanda-o.jpg', 'thumbnail': 'https://cdn2.civitatis.com/rwanda/rwanda-t.jpg'}}]}"
167,ChIJidiaC_nscBAR6jB2VQwjUWI,São Tomé and Príncipe,Santo Tomé y Príncipe,195.0,678.0,ST,STP,False,São Tomé and Príncipe,São Tomé and Príncipe,"{'header': [{'caption': 'São Tomé and Príncipe', 'paths': {'original': 'https://cdn2.civitatis.com/sao-tome-and-principe/sao-tome-and-principe-o.jpg', 'thumbnail': 'https://cdn2.civitatis.com/sao-tome-and-principe/sao-tome-and-principe-t.jpg'}}]}"
168,ChIJcbvFs_VywQ4RQFlhmVClRlo,Senegal,Senegal,196.0,686.0,SN,SEN,False,Senegal,Senegal,"{'header': [{'caption': 'Senegal', 'paths': {'original': 'https://cdn2.civitatis.com/senegal/senegal-o.jpg', 'thumbnail': 'https://cdn2.civitatis.com/senegal/senegal-t.jpg'}}]}"
169,ChIJO62-cP0hXCIR99pJ06DQ0zI,Seychelles,Seychelles,198.0,690.0,SC,SYC,False,Seychelles,Seychelles,"{'header': [{'caption': 'Seychelles', 'paths': {'original': 'https://cdn2.civitatis.com/seychelles/seychelles-o.jpg', 'thumbnail': 'https://cdn2.civitatis.com/seychelles/seychelles-t.jpg'}}]}"
170,ChIJQ_OrOhgGAQ8RGfcsx83paVM,Sierra Leone,Sierra Leona,199.0,694.0,SL,SLE,False,Sierra Leone,Sierra Leone,"{'header': [{'caption': 'Sierra Leone', 'paths': {'original': 'https://cdn2.civitatis.com/sierra-leone/sierra-leone-o.jpg', 'thumbnail': 'https://cdn2.civitatis.com/sierra-leone/sierra-leone-t.jpg'}}]}"
171,ChIJg1vR7KcuHRgRvuXpXM46OZ4,Somalia,Somalia,202.0,706.0,SO,SOM,False,Somalia,Somalia,"{'header': [{'caption': 'Somalia', 'paths': {'original': 'https://cdn2.civitatis.com/somalia/somalia-o.jpg', 'thumbnail': 'https://cdn2.civitatis.com/somalia/somalia-t.jpg'}}]}"
172,ChIJBw8yR-HO6B4RaXANGC_GPcE,Eswatini (Swaziland),Esuatini (Suazilandia),204.0,748.0,SZ,SWZ,False,Swaziland,Eswatini (Swaziland),"{'header': [{'caption': 'Swaziland', 'paths': {'original': 'https://cdn2.civitatis.com/swaziland/swaziland-o.jpg', 'thumbnail': 'https://cdn2.civitatis.com/swaziland/swaziland-t.jpg'}}]}"
173,ChIJURLu2YmmNBwRoOikHwxjXeg,South Africa,Sudáfrica,205.0,710.0,ZA,ZAF,False,South Africa ,South Africa ,"{'header': [{'caption': 'South Africa ', 'paths': {'original': 'https://cdn2.civitatis.com/south-africa/south-africa-o.jpg', 'thumbnail': 'https://cdn2.civitatis.com/south-africa/south-africa-t.jpg'}}]}"
174,ChIJlbFyEMQc2RURNythKkZwv9I,Sudan,Sudán,206.0,736.0,SD,SDN,False,Sudan,Sudan,"{'header': [{'caption': 'Sudan', 'paths': {'original': 'https://cdn2.civitatis.com/sudan/sudan-o.jpg', 'thumbnail': 'https://cdn2.civitatis.com/sudan/sudan-t.jpg'}}]}"
175,ChIJGTE-PbUwGRcRl7y2fmND8Ns,South Sudan,Sudán del Sur,,,,,,,,
176,ChIJEaFpSDFRSxgRMMTBSzEXWog,Tanzania,Tanzania,213.0,834.0,TZ,TZA,False,Tanzania,Tanzania,"{'header': [{'caption': 'Tanzania', 'paths': {'original': 'https://cdn2.civitatis.com/tanzania/tanzania-o.jpg', 'thumbnail': 'https://cdn2.civitatis.com/tanzania/tanzania-t.jpg'}}]}"
177,ChIJGVQYE8HhIxARYJPRGjBbrvo,Togo,Togo,218.0,768.0,TG,TGO,False,Togo,Togo,"{'header': [{'caption': 'Togo', 'paths': {'original': 'https://cdn2.civitatis.com/togo/togo-o.jpg', 'thumbnail': 'https://cdn2.civitatis.com/togo/togo-t.jpg'}}]}"
178,ChIJ4aQWg0SVVRIR75sBqjozhDo,Tunisia,Túnez,222.0,788.0,TN,TUN,True,Tunisia,Tunisia,"{'header': [{'caption': 'Tunisia', 'paths': {'original': 'https://cdn2.civitatis.com/tunisia/tunisia-o.jpg', 'thumbnail': 'https://cdn2.civitatis.com/tunisia/tunisia-t.jpg'}}]}"
179,ChIJRfmZZJ-mcRcRSUUBQ85VQYc,Uganda,Uganda,228.0,800.0,UG,UGA,False,Uganda,Uganda,"{'header': [{'caption': 'Uganda', 'paths': {'original': 'https://cdn2.civitatis.com/uganda/uganda-o.jpg', 'thumbnail': 'https://cdn2.civitatis.com/uganda/uganda-t.jpg'}}]}"
180,ChIJAfb5NGfUIhYRiFsP76e7chQ,Djibouti,Yibuti,238.0,262.0,DJ,DJI,False,Djibouti,Djibouti,"{'header': [{'caption': 'Djibouti', 'paths': {'original': 'https://cdn2.civitatis.com/djibouti/djibouti-o.jpg', 'thumbnail': 'https://cdn2.civitatis.com/djibouti/djibouti-t.jpg'}}]}"
181,ChIJcQv8_KX0QBkRRT5Yfqz5n_E,Zambia,Zambia,239.0,894.0,ZM,ZMB,False,Zambia,Zambia,"{'header': [{'caption': 'Zambia', 'paths': {'original': 'https://cdn2.civitatis.com/zambia/zambia-o.jpg', 'thumbnail': 'https://cdn2.civitatis.com/zambia/zambia-t.jpg'}}]}"
182,ChIJYXGxBuekMRkR7r_LxV84wKE,Zimbabwe,Zimbabue,240.0,716.0,ZW,ZWE,False,Zimbabwe,Zimbabwe,"{'header': [{'caption': 'Zimbabwe', 'paths': {'original': 'https://cdn2.civitatis.com/zimbabwe/zimbabwe-o.jpg', 'thumbnail': 'https://cdn2.civitatis.com/zimbabwe/zimbabwe-t.jpg'}}]}"
183,ChIJu43y3DMOCiIRSyr-lWcXMv8,Mayotte (France),Mayotte (France),145.0,175.0,YT,MYT,False,Mayotte,Mayotte (France),"{'header': [{'caption': 'Mayotte', 'paths': {'original': 'https://cdn2.civitatis.com/mayotte/mayotte-o.jpg', 'thumbnail': 'https://cdn2.civitatis.com/mayotte/mayotte-t.jpg'}}]}"
184,ChIJO-S4EIF3eCER-erb7ImOf0o,Réunion (France),Réunion (France),181.0,638.0,RE,REU,False,Réunion,Réunion (France),"{'header': [{'caption': 'Réunion', 'paths': {'original': 'https://cdn2.civitatis.com/réunion/réunion-o.jpg', 'thumbnail': 'https://cdn2.civitatis.com/réunion/réunion-t.jpg'}}]}"
185,ChIJGSYdyRA7WgIRbtxkK1sPceQ,"Saint Helena, Ascension and Tristan da Cunha (UK)","Saint Helena, Ascension and Tristan da Cunha (UK)",193.0,654.0,SH,SHN,False,Saint Helena,"Saint Helena, Ascension and Tristan da Cunha (UK)","{'header': [{'caption': 'Saint Helena', 'paths': {'original': 'https://cdn2.civitatis.com/saint-helena/saint-helena-o.jpg', 'thumbnail': 'https://cdn2.civitatis.com/saint-helena/saint-helena-t.jpg'}}]}"
186,ChIJbQL_-LZu0TgReNqWvg1GtfM,Afghanistan,Afganistán,1.0,4.0,AF,AFG,False,Afghanistan,Afghanistan,"{'header': [{'caption': 'Afghanistan', 'paths': {'original': 'https://cdn2.civitatis.com/afghanistan/afghanistan-o.jpg', 'thumbnail': 'https://cdn2.civitatis.com/afghanistan/afghanistan-t.jpg'}}]}"
187,ChIJQSqV5z-z5xURm7YawktQYFk,Saudi Arabia,Arabia Saudita,11.0,682.0,SA,SAU,False,Saudi Arabia,Saudi Arabia,"{'header': [{'caption': 'Saudi Arabia', 'paths': {'original': 'https://cdn2.civitatis.com/saudia-arabia/saudia-arabia-o.jpg', 'thumbnail': 'https://cdn2.civitatis.com/saudia-arabia/saudia-arabia-t.jpg'}}]}"
188,ChIJx7pz54RWFUARIy2C63p1tNA,Armenia,Armenia,14.0,51.0,AM,ARM,False,Armenia,Armenia,"{'header': [{'caption': 'Armenia', 'paths': {'original': 'https://cdn2.civitatis.com/armenia/armenia-o.jpg', 'thumbnail': 'https://cdn2.civitatis.com/armenia/armenia-t.jpg'}}]}"
189,ChIJ3x2iGtl8MEARCM2DPmtSyeY,Azerbaijan,Azerbaiyán,18.0,31.0,AZ,AZE,False,Azerbaijan,Azerbaijan,"{'header': [{'caption': 'Azerbaijan', 'paths': {'original': 'https://cdn2.civitatis.com/azerbaijan/azerbaijan-o.jpg', 'thumbnail': 'https://cdn2.civitatis.com/azerbaijan/azerbaijan-t.jpg'}}]}"
190,ChIJp4vhgO2qrTARa_zhxOAoLQ8,Bangladesh,Bangladesh,21.0,50.0,BD,BGD,False,Bangladesh,Bangladesh,"{'header': [{'caption': 'Bangladesh', 'paths': {'original': 'https://cdn2.civitatis.com/bangladesh/bangladesh-o.jpg', 'thumbnail': 'https://cdn2.civitatis.com/bangladesh/bangladesh-t.jpg'}}]}"
191,ChIJEaJHak5SSD4RRhDa2-JQlC4,Bahrain,Baréin,20.0,48.0,BH,BHR,False,Bahrain,Bahrain,"{'header': [{'caption': 'Bahrain', 'paths': {'original': 'https://cdn2.civitatis.com/bahrain/bahrain-o.jpg', 'thumbnail': 'https://cdn2.civitatis.com/bahrain/bahrain-t.jpg'}}]}"
192,ChIJBylOcadSVjAREStiHOQOe7o,Myanmar,Birmania,153.0,104.0,MM,MMR,False,Myanmar,Myanmar,"{'header': [{'caption': 'Myanmar', 'paths': {'original': 'https://cdn2.civitatis.com/myanmar/myanmar-o.jpg', 'thumbnail': 'https://cdn2.civitatis.com/myanmar/myanmar-t.jpg'}}]}"
193,ChIJ0bm4BEuZGDIR1toJ3YA1_l0,Brunei,Brunéi,34.0,96.0,BN,BRN,False,Brunei,Brunei,"{'header': [{'caption': 'Brunei', 'paths': {'original': 'https://cdn2.civitatis.com/brunei/brunei-o.jpg', 'thumbnail': 'https://cdn2.civitatis.com/brunei/brunei-t.jpg'}}]}"
194,ChIJz5XFc6WSWzcR2rw2KGWsDLs,Bhutan,Bután,259.0,0.0,BT,064,False,Bhutan,Bhutan,"{'header': [{'caption': 'Bhutan', 'paths': {'original': 'https://cdn2.civitatis.com/bhutan/bhutan-o.jpg', 'thumbnail': 'https://cdn2.civitatis.com/bhutan/bhutan-t.jpg'}}]}"
195,ChIJQzfc1L-HBzERUxL0ieC_t-Q,Cambodia,Camboya,40.0,116.0,KH,KHM,False,Cambodia,Cambodia,"{'header': [{'caption': 'Cambodia', 'paths': {'original': 'https://cdn2.civitatis.com/cambodia/cambodia-o.jpg', 'thumbnail': 'https://cdn2.civitatis.com/cambodia/cambodia-t.jpg'}}]}"
196,ChIJf-jc_zTFRT4RMkArgc-I-hw,Qatar,Catar,179.0,634.0,QA,QAT,False,Qatar,Qatar,"{'header': [{'caption': 'Qatar', 'paths': {'original': 'https://cdn2.civitatis.com/qatar/qatar-o.jpg', 'thumbnail': 'https://cdn2.civitatis.com/qatar/qatar-t.jpg'}}]}"
197,ChIJwULG5WSOUDERbzafNHyqHZU,China,China,47.0,156.0,CN,CHN,True,China,China,"{'header': [{'caption': 'China', 'paths': {'original': 'https://cdn2.civitatis.com/china/china-o.jpg', 'thumbnail': 'https://cdn2.civitatis.com/china/china-t.jpg'}}]}"
198,ChIJN0NP5toCfjURHIYdPhyHCzo,North Korea,Corea del Norte,57.0,408.0,KP,PRK,False,North Korea,North Korea,"{'header': [{'caption': 'North Korea', 'paths': {'original': 'https://cdn2.civitatis.com/north-korea/north-korea-o.jpg', 'thumbnail': 'https://cdn2.civitatis.com/north-korea/north-korea-t.jpg'}}]}"
199,ChIJm7oRy-tVZDURS9uIugCbJJE,South Korea,Corea del Sur,58.0,410.0,KR,KOR,False,South Korea,South Korea,"{'header': [{'caption': 'South Korea', 'paths': {'original': 'https://cdn2.civitatis.com/south-korea/south-korea-o.jpg', 'thumbnail': 'https://cdn2.civitatis.com/south-korea/south-korea-t.jpg'}}]}"
200,ChIJvRKrsd9IXj4RpwoIwFYv0zM,United Arab Emirates,Emiratos Árabes Unidos,69.0,784.0,AE,ARE,True,United Arab Emirates,United Arab Emirates,"{'header': [{'caption': 'United Arab Emirates', 'paths': {'original': 'https://cdn2.civitatis.com/united-arab-emirates/united-arab-emirates-o.jpg', 'thumbnail': 'https://cdn2.civitatis.com/united-arab-emirates/united-arab-emirates-t.jpg'}}]}"
201,ChIJY96HXyFTQDIRV9opeu-QR3g,Philippines,Filipinas,79.0,608.0,PH,PHL,True,Philippines,Philippines,"{'header': [{'caption': 'Philippines', 'paths': {'original': 'https://cdn2.civitatis.com/philippines/philippines-o.jpg', 'thumbnail': 'https://cdn2.civitatis.com/philippines/philippines-t.jpg'}}]}"
202,ChIJkbeSa_BfYzARphNChaFPjNc,India,India,215.0,86.0,IO,IOT,False,British Indian Ocean Territory,India,"{'header': [{'caption': 'British Indian Ocean Territory', 'paths': {'original': 'https://cdn2.civitatis.com/british-indian-ocean-territory/british-indian-ocean-territory-o.jpg', 'thumbnail': 'https://cdn2.civitatis.com/british-indian-ocean-territory/british-indian-ocean-territory-t.jpg'}}]}"
203,ChIJtwRkSdcHTCwRhfStG-dNe-M,Indonesia,Indonesia,106.0,360.0,ID,IDN,True,Indonesia,Indonesia,"{'header': [{'caption': 'Indonesia', 'paths': {'original': 'https://cdn2.civitatis.com/indonesia/indonesia-o.jpg', 'thumbnail': 'https://cdn2.civitatis.com/indonesia/indonesia-t.jpg'}}]}"
204,ChIJEUr1VD2CVxURAhYGorthpW0,Iraq,Irak,108.0,368.0,IQ,IRQ,False,Iraq,Iraq,"{'header': [{'caption': 'Iraq', 'paths': {'original': 'https://cdn2.civitatis.com/iraq/iraq-o.jpg', 'thumbnail': 'https://cdn2.civitatis.com/iraq/iraq-t.jpg'}}]}"
205,ChIJ8R1rwS7s9z4RzvpRntOVsEA,Iran,Irán,107.0,364.0,IR,IRN,False,Iran,Iran,"{'header': [{'caption': 'Iran', 'paths': {'original': 'https://cdn2.civitatis.com/iran/iran-o.jpg', 'thumbnail': 'https://cdn2.civitatis.com/iran/iran-t.jpg'}}]}"
206,ChIJi8mnMiRJABURuiw1EyBCa2o,Israel,Israel,111.0,376.0,IL,ISR,True,Israel,Israel,"{'header': [{'caption': 'Israel', 'paths': {'original': 'https://cdn2.civitatis.com/israel/israel-o.jpg', 'thumbnail': 'https://cdn2.civitatis.com/israel/israel-t.jpg'}}]}"
207,ChIJLxl_1w9OZzQRRFJmfNR1QvU,Japan,Japón,114.0,392.0,JP,JPN,True,Japan,Japan,"{'header': [{'caption': 'Japan', 'paths': {'original': 'https://cdn2.civitatis.com/japan/japan-o.jpg', 'thumbnail': 'https://cdn2.civitatis.com/japan/japan-t.jpg'}}]}"
208,ChIJmd5kZkdvABURmU4mUQdbKI0,Jordan,Jordania,115.0,400.0,JO,JOR,True,Jordan,Jordan,"{'header': [{'caption': 'Jordan', 'paths': {'original': 'https://cdn2.civitatis.com/jordan/jordan-o.jpg', 'thumbnail': 'https://cdn2.civitatis.com/jordan/jordan-t.jpg'}}]}"
209,ChIJR6n87AcQqTgRGw6z5C-Ee18,Kazakhstan,Kazajistán,116.0,398.0,KZ,KAZ,False,Kazakhstan,Kazakhstan,"{'header': [{'caption': 'Kazakhstan', 'paths': {'original': 'https://cdn2.civitatis.com/kazakhstan/kazakhstan-o.jpg', 'thumbnail': 'https://cdn2.civitatis.com/kazakhstan/kazakhstan-t.jpg'}}]}"
210,ChIJ8yfp_B04lzgRM8SITrdYECg,Kyrgyzstan,Kirguistán,118.0,417.0,KG,KGZ,False,Kyrgyzstan,Kyrgyzstan,"{'header': [{'caption': 'Kyrgyzstan', 'paths': {'original': 'https://cdn2.civitatis.com/kyrgyzstan/kyrgyzstan-o.jpg', 'thumbnail': 'https://cdn2.civitatis.com/kyrgyzstan/kyrgyzstan-t.jpg'}}]}"
211,ChIJoVHqvj82xT8R0u3Yks1rcnQ,Kuwait,Kuwait,120.0,414.0,KW,KWT,False,Kuwait,Kuwait,"{'header': [{'caption': 'Kuwait', 'paths': {'original': 'https://cdn2.civitatis.com/kuwait/kuwait-o.jpg', 'thumbnail': 'https://cdn2.civitatis.com/kuwait/kuwait-t.jpg'}}]}"
212,ChIJiUWCsFeQFDERgc2ZH0iSxQ4,Laos,Laos,121.0,418.0,LA,LAO,False,Laos,Laos,"{'header': [{'caption': 'Laos', 'paths': {'original': 'https://cdn2.civitatis.com/laos/laos-o.jpg', 'thumbnail': 'https://cdn2.civitatis.com/laos/laos-t.jpg'}}]}"
213,ChIJraoihAIXHxURcPkAbAk0fcw,Lebanon,Líbano,124.0,422.0,LB,LBN,False,Lebanon,Lebanon,"{'header': [{'caption': 'Lebanon', 'paths': {'original': 'https://cdn2.civitatis.com/lebanon/lebanon-o.jpg', 'thumbnail': 'https://cdn2.civitatis.com/lebanon/lebanon-t.jpg'}}]}"
214,ChIJrzBnX5fTNDAR2BwhKJOWRQc,Malaysia,Malasia,133.0,458.0,MY,MYS,True,Malaysia,Malaysia,"{'header': [{'caption': 'Malaysia', 'paths': {'original': 'https://cdn2.civitatis.com/malaysia/malaysia-o.jpg', 'thumbnail': 'https://cdn2.civitatis.com/malaysia/malaysia-t.jpg'}}]}"
215,ChIJvXv7qr-ZtSQRiWKVgeEJRUE,Maldives,Maldivas,135.0,462.0,MV,MDV,False,Maldives,Maldives,"{'header': [{'caption': 'Maldives', 'paths': {'original': 'https://cdn2.civitatis.com/maldives/maldives-o.jpg', 'thumbnail': 'https://cdn2.civitatis.com/maldives/maldives-t.jpg'}}]}"
216,ChIJS22qaQYFJzYRluDmNzkh3eA,Mongolia,Mongolia,150.0,496.0,MN,MNG,False,Mongolia,Mongolia,"{'header': [{'caption': 'Mongolia', 'paths': {'original': 'https://cdn2.civitatis.com/mongolia/mongolia-o.jpg', 'thumbnail': 'https://cdn2.civitatis.com/mongolia/mongolia-t.jpg'}}]}"
217,ChIJz2gufcfolTkR3obM0LyaojQ,Nepal,Nepal,156.0,524.0,NP,NPL,False,Nepal,Nepal,"{'header': [{'caption': 'Nepal', 'paths': {'original': 'https://cdn2.civitatis.com/nepal/nepal-o.jpg', 'thumbnail': 'https://cdn2.civitatis.com/nepal/nepal-t.jpg'}}]}"
218,ChIJv5vVqWaf1j0RF6ixZXZMBjo,Oman,Omán,165.0,512.0,OM,OMN,False,Oman,Oman,"{'header': [{'caption': 'Oman', 'paths': {'original': 'https://cdn2.civitatis.com/oman/oman-o.jpg', 'thumbnail': 'https://cdn2.civitatis.com/oman/oman-t.jpg'}}]}"
219,ChIJH3X9-NJS2zgRXJIU5veht0Y,Pakistan,Pakistán,167.0,586.0,PK,PAK,False,Pakistan ,Pakistan ,"{'header': [{'caption': 'Pakistan ', 'paths': {'original': 'https://cdn2.civitatis.com/pakistan/pakistan-o.jpg', 'thumbnail': 'https://cdn2.civitatis.com/pakistan/pakistan-t.jpg'}}]}"
220,ChIJdZOLiiMR2jERxPWrUs9peIg,Singapore,Singapur,200.0,702.0,SG,SGP,True,Singapore,Singapore,"{'header': [{'caption': 'Singapore', 'paths': {'original': 'https://cdn2.civitatis.com/singapore-country/singapore-country-o.jpg', 'thumbnail': 'https://cdn2.civitatis.com/singapore-country/singapore-country-t.jpg'}}]}"
221,ChIJp8Y8QdzmGBURIPYqiPRGdYc,Syria,Siria,201.0,760.0,SY,SYR,False,Syria ,Syria ,"{'header': [{'caption': 'Syria ', 'paths': {'original': 'https://cdn2.civitatis.com/syria/syria-o.jpg', 'thumbnail': 'https://cdn2.civitatis.com/syria/syria-t.jpg'}}]}"
222,ChIJnR5a9jxZ4joRjNPiALSkPeE,Sri Lanka,Sri Lanka,203.0,144.0,LK,LKA,False,Sri Lanka,Sri Lanka,"{'header': [{'caption': 'Sri Lanka', 'paths': {'original': 'https://cdn2.civitatis.com/sri-lanka/sri-lanka-o.jpg', 'thumbnail': 'https://cdn2.civitatis.com/sri-lanka/sri-lanka-t.jpg'}}]}"
223,ChIJsU1CR_eNTTARAuhXB4gs154,Thailand,Tailandia,211.0,764.0,TH,THA,True,Thailand,Thailand,"{'header': [{'caption': 'Thailand', 'paths': {'original': 'https://cdn2.civitatis.com/thailand/thailand-o.jpg', 'thumbnail': 'https://cdn2.civitatis.com/thailand/thailand-t.jpg'}}]}"
224,ChIJzbO8enN2sTgRtYgZT4QxwyU,Tajikistan,Tayikistán,214.0,762.0,TJ,TJK,False,Tajikistan,Tajikistan,"{'header': [{'caption': 'Tajikistan', 'paths': {'original': 'https://cdn2.civitatis.com/tajikistan/tajikistan-o.jpg', 'thumbnail': 'https://cdn2.civitatis.com/tajikistan/tajikistan-t.jpg'}}]}"
225,ChIJKaHkhgnl_SwRPFvoh4PG5QM,Timor-Leste,Timor Oriental,217.0,626.0,TL,TLS,False,Timor-Leste,Timor-Leste,"{'header': [{'caption': 'Timor-Leste', 'paths': {'original': 'https://cdn2.civitatis.com/timor-leste/timor-leste-o.jpg', 'thumbnail': 'https://cdn2.civitatis.com/timor-leste/timor-leste-t.jpg'}}]}"
226,ChIJy2y8dFXLZT8RkaRpQWuC3X4,Turkmenistan,Turkmenistán,224.0,795.0,TM,TKM,False,Turkmenistan,Turkmenistan,"{'header': [{'caption': 'Turkmenistan', 'paths': {'original': 'https://cdn2.civitatis.com/turkmenistan/turkmenistan-o.jpg', 'thumbnail': 'https://cdn2.civitatis.com/turkmenistan/turkmenistan-t.jpg'}}]}"
227,ChIJcSZPllwVsBQRKl9iKtTb2UA,Turkey,Turquía,225.0,792.0,TR,TUR,True,Turkey,Turkey,"{'header': [{'caption': 'Turkey', 'paths': {'original': 'https://cdn2.civitatis.com/turkey/turkey-o.jpg', 'thumbnail': 'https://cdn2.civitatis.com/turkey/turkey-t.jpg'}}]}"
228,ChIJsXbWpSCLrjgRIB6Efq1tCso,Uzbekistan,Uzbekistán,230.0,860.0,UZ,UZB,False,Uzbekistan,Uzbekistan,"{'header': [{'caption': 'Uzbekistan', 'paths': {'original': 'https://cdn2.civitatis.com/uzbekistan/uzbekistan-o.jpg', 'thumbnail': 'https://cdn2.civitatis.com/uzbekistan/uzbekistan-t.jpg'}}]}"
229,ChIJXx5qc016FTERvmL-4smwO7A,Vietnam,Vietnam,233.0,704.0,VN,VNM,True,Vietnam,Vietnam,"{'header': [{'caption': 'Vietnam', 'paths': {'original': 'https://cdn2.civitatis.com/vietnam/vietnam-o.jpg', 'thumbnail': 'https://cdn2.civitatis.com/vietnam/vietnam-t.jpg'}}]}"
230,ChIJX7w0fKzbAxYRrneufjcp8ZI,Yemen,Yemen,237.0,887.0,YE,YEM,False,Yemen,Yemen,"{'header': [{'caption': 'Yemen', 'paths': {'original': 'https://cdn2.civitatis.com/yemen/yemen-o.jpg', 'thumbnail': 'https://cdn2.civitatis.com/yemen/yemen-t.jpg'}}]}"
231,ChIJ2b1miNLyHBURhvZm0QGgF-4,Palestine,Palestina,169.0,275.0,PS,PSE,False,Palestine,Palestine,"{'header': [{'caption': 'Palestine', 'paths': {'original': 'https://cdn2.civitatis.com/palestine/palestine-o.jpg', 'thumbnail': 'https://cdn2.civitatis.com/palestine/palestine-t.jpg'}}]}"
232,ChIJL1cHXAbzbjQRaVScvwTwEec,Taiwan,Taiwán,212.0,158.0,TW,TWN,False,Taiwan,Taiwan,"{'header': [{'caption': 'Taiwan', 'paths': {'original': 'https://cdn2.civitatis.com/taiwan/taiwan-o.jpg', 'thumbnail': 'https://cdn2.civitatis.com/taiwan/taiwan-t.jpg'}}]}"
234,ChIJD5gyo-3iAzQRfMnq27qzivA,Hong Kong (China),Hong Kong (China),103.0,344.0,HK,HKG,True,Hong Kong,Hong Kong (China),"{'header': [{'caption': 'Hong Kong', 'paths': {'original': 'https://cdn2.civitatis.com/hong-kong-country/hong-kong-country-o.jpg', 'thumbnail': 'https://cdn2.civitatis.com/hong-kong-country/hong-kong-country-t.jpg'}}]}"
235,ChIJ88g14uB6ATQR9qyFtCzje8Y,Macau,Macau,130.0,446.0,MO,MAC,False,Macau,Macau,"{'header': [{'caption': 'Macau', 'paths': {'original': 'https://cdn2.civitatis.com/macau-country/macau-country-o.jpg', 'thumbnail': 'https://cdn2.civitatis.com/macau-country/macau-country-t.jpg'}}]}"
236,ChIJ0VcO-0tLbEsREVxs6jdncZw,Saint Pierre et Miquelon,San Pedro y Miguelón,191.0,666.0,PM,SPM,False,Saint Pierre and Miquelon,Saint Pierre et Miquelon,"{'header': [{'caption': 'Saint Pierre and Miquelon', 'paths': {'original': 'https://cdn2.civitatis.com/saint-pierre-and-miquelon/saint-pierre-and-miquelon-o.jpg', 'thumbnail': 'https://cdn2.civitatis.com/saint-pierre-and-miquelon/saint-pierre-and-miquelon-t.jpg'}}]}"
237,ChIJFXfA47sNok4RGOIUAYOdzzQ,Greenland,Groenlandia,91.0,304.0,GL,GRL,False,Greenland,Greenland,"{'header': [{'caption': 'Greenland', 'paths': {'original': 'https://cdn2.civitatis.com/greenland/greenland-o.jpg', 'thumbnail': 'https://cdn2.civitatis.com/greenland/greenland-t.jpg'}}]}"
238,ChIJnej-KlR1DowR5nUq6msRdAE,Saint Barthélemy,San Bartolomé,280.0,0.0,BL,BL,False,San Bartolomé,Saint Barthélemy,"{'header': [{'caption': 'San Bartolomé', 'paths': {'original': 'https://cdn2.civitatis.com/san-bartolome/san-bartolome-o.jpg', 'thumbnail': 'https://cdn2.civitatis.com/san-bartolome/san-bartolome-t.jpg'}}]}"
239,ChIJ_U5xCKxvDowRp4huTgqDGbk,Saint Martin,San Martín,10.0,530.0,AN,ANT,False,Saint Martin,Saint Martin,"{'header': [{'caption': 'Saint Martin', 'paths': {'original': 'https://cdn2.civitatis.com/saint-martin/saint-martin-o.jpg', 'thumbnail': 'https://cdn2.civitatis.com/saint-martin/saint-martin-t.jpg'}}]}"
240,ChIJV9ZNUQlAUxMR9svXjuodG7c,Kosovo,Kosovo,,,,,,,,
